OBJECT_NAME,OBJECT_ID,EPOCH,MEAN_MOTION,ECCENTRICITY,INCLINATION,RA_OF_ASC_NODE,ARG_OF_PERICENTER,MEAN_ANOMALY,EPHEMERIS_TYPE,CLASSIFICATION_TYPE,NORAD_CAT_ID,ELEMENT_SET_NO,REV_AT_EPOCH,BSTAR,MEAN_MOTION_DOT,MEAN_MOTION_DDOT
ALCOMSAT 1,2017-078A,2026-06-11T16:32:55.701312,1.00271794,.000221,0.0422,75.9720,0.2243,47.2818,0,U,43039,999,3124,0,-.169E-5,0
SBIRS GEO-3 (USA 282),2018-009A,2026-06-11T15:54:36.873792,1.00271568,.000192,2.1802,11.8163,64.1972,263.2499,0,U,43162,999,3078,0,.143E-5,0
AL YAH 3,2018-012A,2026-06-11T16:34:18.069024,1.00270600,.0003952,1.5369,83.1715,357.4271,47.9124,0,U,43174,999,3079,0,-.14E-5,0
SES-14,2018-012B,2026-06-09T11:24:01.053216,1.00270313,.00010572,0.0220,31.0141,53.8990,296.4420,0,U,43175,999,694,0,-.261E-5,0
GOES 17,2018-022A,2026-06-11T14:31:54.100992,1.00270815,.0000476,0.9223,85.8105,24.8484,277.7766,0,U,43226,999,3036,0,-.166E-5,0
HISPASAT 30W-6,2018-023A,2026-06-09T04:38:24.091296,1.00270107,.0006065,0.0466,43.0702,24.4046,229.6971,0,U,43228,999,3032,0,-.199E-5,0
SUPERBIRD-B3,2018-033A,2026-06-11T15:17:38.524416,1.00270502,.0001202,0.0114,311.5386,156.5456,183.3059,0,U,43271,999,3000,0,-.76E-6,0
HYLAS 4,2018-033B,2026-06-11T16:30:10.964160,1.00269105,.0001165,0.0185,56.9141,24.2309,32.9514,0,U,43272,999,3001,0,-.217E-5,0
IRNSS-1I,2018-035A,2026-06-10T23:58:16.872960,1.00270739,.00178781,28.7398,74.2932,181.9830,57.5112,0,U,43286,999,3001,0,.84E-6,0
USA 283,2018-036A,2026-06-10T10:28:38.701920,1.00269147,.000013,0.0149,323.1993,214.6638,12.1871,0,U,43339,999,2522,0,0,0
COSMOS 2526,2018-037A,2026-06-11T00:09:56.689632,1.00278103,.0000807,0.0303,76.5937,95.3826,217.9413,0,U,43432,999,2989,0,-.327E-5,0
APSTAR-6C,2018-041A,2026-06-11T20:43:34.785120,1.00271355,.0001085,0.0238,343.4630,2.9577,358.6960,0,U,43450,999,2975,0,-.301E-5,0
BANGABANDHUSAT-1,2018-044A,2026-06-11T16:14:27.515040,1.00267647,.0001682,0.0190,5.3701,79.9183,177.4299,0,U,43463,999,2965,0,0,0
SES-12,2018-049A,2026-06-11T11:59:11.506272,1.00272457,.0001002,0.0231,34.3989,267.7443,232.5099,0,U,43488,999,2936,0,-.253E-5,0
FENGYUN 2H,2018-050A,2026-06-11T20:27:58.781088,1.00270449,.0001807,3.0162,79.1409,131.0155,76.4689,0,U,43491,999,2938,0,-.116E-5,0
BEIDOU-2 IGSO-7,2018-057A,2026-06-10T23:53:30.375744,1.00253023,.01048473,55.1937,163.1120,237.9272,327.1184,0,U,43539,999,2906,0,.4E-6,0
TELSTAR 19V,2018-059A,2026-06-11T19:47:19.665024,1.00270395,.00025,0.0172,161.5675,312.6388,19.7917,0,U,43562,999,2909,0,-.263E-5,0
TELKOM 4 (MERAH PUTIH),2018-064A,2026-06-11T20:20:38.771808,1.00267424,.0001311,0.0216,11.1867,107.5880,194.5610,0,U,43587,999,2882,0,0,0
TELSTAR 18V,2018-069A,2026-06-11T19:01:59.303136,1.00269308,.0001674,0.0121,303.3123,136.5867,243.7370,0,U,43611,999,2858,0,-.278E-5,0
AZERSPACE 2 (IS-38),2018-074A,2026-06-11T03:11:40.360992,1.00271976,.00011981,0.0036,69.3548,12.8510,270.3100,0,U,43632,999,2838,0,.154E-5,0
HORIZONS-3E,2018-074B,2026-06-11T15:45:37.736064,1.00270916,.0000942,0.0168,153.8582,115.9640,35.5804,0,U,43633,999,2828,0,-.14E-6,0
AEHF-4 (USA 288),2018-079A,2026-06-11T08:17:38.631264,1.00274739,.0060479,1.4303,3.4271,356.5742,316.5401,0,U,43651,999,2823,0,-.259E-5,0
BEIDOU-3 G1,2018-085A,2026-06-11T19:08:13.703712,1.00270992,.0008277,2.8533,97.5385,348.4495,261.1824,0,U,43683,999,2800,0,-.93E-6,0
GSAT-29,2018-089A,2026-06-11T16:55:41.642976,1.00272298,.0003394,0.0533,106.9111,328.6176,133.4764,0,U,43698,999,2773,0,.102E-5,0
ES'HAIL 2,2018-090A,2026-06-11T15:04:43.773888,1.00269967,.0001431,0.0167,320.3790,157.1033,34.4948,0,U,43700,999,2762,0,.161E-5,0
GEO-KOMPSAT-2A,2018-100A,2026-06-11T17:16:39.633024,1.00274059,.0001897,0.0542,130.1976,317.0175,200.2668,0,U,43823,999,2757,0,-.327E-5,0
GSAT-11,2018-100B,2026-06-11T17:01:11.117280,1.00271088,.0007721,0.0428,255.6387,191.1598,142.5541,0,U,43824,999,2742,0,-.6E-6,0
GSAT-7A,2018-105A,2026-06-11T16:57:56.426976,1.00269289,.0001937,0.0161,340.1720,79.8835,157.2448,0,U,43864,999,2739,0,0,0
COSMOS 2533,2018-107A,2026-06-11T20:25:21.531360,1.00270732,.0000164,0.0452,109.5121,35.1140,131.8951,0,U,43867,999,2739,0,-.22E-6,0
TJS-3,2018-110A,2026-06-11T17:00:07.404192,1.00271895,.0002055,2.5299,80.5556,80.8985,141.8861,0,U,43874,999,2736,0,-.2E-5,0
ZHONGXING-2D,2019-001A,2026-06-11T20:42:27.393120,1.00274487,.0001425,0.0423,249.8684,95.9631,354.9812,0,U,43920,999,5402,0,-.32E-5,0
HELLAS-SAT 4 & SGS-1,2019-007A,2026-06-09T11:48:42.536736,1.00272091,.00050878,0.0659,133.0572,8.6055,332.4040,0,U,44034,999,2729,0,.17E-5,0
GSAT-31,2019-007B,2026-06-11T15:10:58.176192,1.00271975,.0001882,0.0793,261.2629,103.0934,171.1726,0,U,44035,999,2691,0,.142E-5,0
NUSANTARA SATU,2019-009A,2026-06-11T15:39:00.869760,1.00270425,.0004314,0.0469,134.6869,344.6822,161.3875,0,U,44048,999,2671,0,-.218E-5,0
ZHONGXING-6C,2019-012A,2026-06-11T20:42:27.393120,1.00274243,.0013807,0.1041,78.6444,331.9773,290.5949,0,U,44067,999,2668,0,-.319E-5,0
WGS 10 (USA 291),2019-014A,2026-06-11T04:58:35.751072,1.00267293,.0000764,0.0227,359.5065,314.2285,80.7754,0,U,44071,999,2655,0,0,0
TIANLIAN 2-01,2019-017A,2026-06-11T16:21:41.224896,1.00270813,.0000693,0.5250,83.1167,18.6606,120.6897,0,U,44076,999,2659,0,-.9E-6,0
ARABSAT-6A,2019-021A,2026-06-11T06:32:46.794048,1.00269621,.000177,0.0520,6.1545,3.0733,19.1094,0,U,44186,999,2609,0,.171E-5,0
BEIDOU-3 IGSO-1,2019-023A,2026-06-06T22:54:10.040832,1.00294886,.00254341,58.6799,37.7569,225.6649,92.8731,0,U,44204,999,710,0,-.215E-5,0
BEIDOU-2 G8,2019-027A,2026-06-11T20:46:34.497984,1.00272834,.0010305,1.6432,74.5012,283.1363,358.7523,0,U,44231,999,2602,0,-.231E-5,0
YAMAL 601,2019-031A,2026-06-11T21:43:01.169760,1.00272292,.0002107,0.0234,1.1118,81.2880,192.5961,0,U,44307,999,2587,0,0,0
AT&T T-16,2019-034A,2026-06-11T16:11:20.272416,1.00271431,.0000684,0.0236,64.6927,225.1191,112.1847,0,U,44333,999,2557,0,-.99E-6,0
EUTELSAT 7C,2019-034B,2026-06-11T16:42:02.327328,1.00270846,.0003015,0.0733,173.2385,251.7034,92.6086,0,U,44334,999,678,0,.65E-6,0
BEIDOU-3 IGSO-2,2019-035A,2026-06-11T21:28:09.730848,1.00268095,.0039969,55.2458,158.9091,216.3305,326.8436,0,U,44337,999,2561,0,-.41E-6,0
COSMOS 2539,2019-048A,2026-06-11T13:17:58.796736,1.00273877,.0000242,0.0400,103.1991,141.6449,226.5634,0,U,44457,999,2517,0,.98E-6,0
EDRS-C,2019-049A,2026-06-11T17:20:39.248736,1.00269754,.0000058,0.0136,353.6180,80.1989,228.9209,0,U,44475,999,2515,0,0,0
INTELSAT 39 (IS-39),2019-049B,2026-06-10T22:34:08.694624,1.00269836,.00010821,0.0255,336.9481,329.3092,353.5144,0,U,44476,999,2506,0,0,0
AMOS-17,2019-050A,2026-06-09T23:40:49.114848,1.00270721,.00015691,0.0150,336.4106,127.3490,166.7906,0,U,44479,999,2511,0,.126E-5,0
AEHF-5 (USA 292),2019-051A,2026-06-11T17:30:27.643104,1.00275692,.0066387,1.4597,335.7501,0.4451,279.4873,0,U,44481,999,2520,0,-.242E-5,0
EUTELSAT 5 WEST B,2019-067A,2026-06-11T16:38:40.148736,1.00271886,.0002984,0.0627,353.5175,86.7801,64.4209,0,U,44624,999,2438,0,-.26E-6,0
TJS-4,2019-070A,2026-06-11T20:29:06.173088,1.00269105,.0004582,0.0128,306.2725,93.3100,251.3894,0,U,44637,999,2448,0,-.153E-5,0
BEIDOU-3 IGSO-3,2019-073A,2026-05-16T19:27:04.075776,1.00246251,.0042953,54.8566,281.2355,189.4588,170.3676,0,U,44709,999,2414,0,-.217E-5,0
TIBA-1,2019-080A,2026-06-11T16:50:06.554400,1.00270419,.0001772,0.0515,355.4855,92.6306,99.9720,0,U,44800,999,2400,0,.172E-5,0
INMARSAT GX5,2019-080B,2026-06-11T16:43:09.719328,1.00271123,.0002263,0.0418,20.6409,57.9242,83.2957,0,U,44801,999,673,0,.91E-6,0
JCSAT-18 (KACIFIC 1),2019-091A,2026-06-10T19:08:16.516032,1.00268324,.00005905,0.0107,325.8885,259.3585,110.9752,0,U,44868,999,2394,0,0,0
ELEKTRO-L 3,2019-095A,2026-06-11T21:05:29.872608,1.00271962,.0001196,0.2419,81.4610,355.9198,215.1672,0,U,44903,999,2365,0,-.8E-6,0
SHIJIAN-20 (SJ-20),2019-097A,2026-06-11T15:36:10.469952,1.00275988,.001382,4.9041,75.1287,54.2016,49.5311,0,U,44910,999,2364,0,.149E-5,0
TJS-5,2020-002A,2026-06-11T21:08:19.639104,1.00271806,.000752,0.0250,288.9880,118.6052,277.2264,0,U,44978,999,2365,0,-.326E-5,0
GSAT-30,2020-005A,2026-06-11T17:03:40.876992,1.00271924,.0003426,0.0593,101.7308,341.4961,155.7307,0,U,45026,999,2345,0,-.148E-5,0
EUTELSAT KONNECT,2020-005B,2026-06-11T16:42:02.327328,1.00268847,.0001279,0.0702,98.4048,138.5800,280.8104,0,U,45027,999,2428,0,.66E-6,0
JCSAT-17,2020-013A,2026-06-11T08:45:31.322304,1.00272821,.0002466,5.3924,356.8068,81.5528,88.7524,0,U,45245,999,2317,0,-.305E-5,0
GEO-KOMPSAT-2B,2020-013B,2026-06-11T17:16:39.633024,1.00272200,.0000718,0.0240,246.8521,18.4067,22.2201,0,U,45246,999,2322,0,-.327E-5,0
BEIDOU-3 G2,2020-017A,2026-06-11T20:28:13.756800,1.00272972,.00023,2.8522,47.2559,31.8172,208.2449,0,U,45344,999,2320,0,-.127E-5,0
AEHF-6 (USA 298),2020-022B,2026-06-11T19:01:59.303136,1.00273642,.0043178,2.5609,301.0714,17.1542,5.1640,0,U,45465,999,2296,0,-.281E-5,0
BEIDOU-3 G3,2020-040A,2026-06-11T20:36:50.431392,1.00269764,.0002599,2.4328,67.4398,337.8051,274.7334,0,U,45807,999,2201,0,-.339E-5,0
APSTAR-6D,2020-045A,2026-06-09T16:33:34.992576,1.00268962,.00021036,0.0502,104.3507,344.4035,191.7177,0,U,45863,999,2178,0,-.301E-5,0
KOREASAT 116,2020-048A,2026-06-11T20:20:02.774112,1.00270887,.000079,0.0100,321.9582,117.2185,242.2465,0,U,45920,999,2158,0,-.346E-5,0
EXPRESS 103,2020-053A,2026-06-11T22:02:02.937984,1.00271625,.0000331,0.0120,279.9664,126.8271,280.4913,0,U,45985,999,2159,0,-.264E-5,0
EXPRESS 80,2020-053B,2026-06-11T01:22:30.358848,1.00270979,.0002441,0.0255,314.7601,201.8590,203.3920,0,U,45986,999,2157,0,0,0
BSAT-4B,2020-056A,2026-06-11T20:59:35.952288,1.00269548,.0003695,0.0112,111.5930,3.0390,210.3121,0,U,46112,999,2133,0,0,0
MEV-2,2020-056B,2026-06-11T16:39:47.543328,1.00271147,.0000243,0.0129,326.6782,212.8182,329.4806,0,U,46113,999,8050,0,.5E-7,0
GALAXY 30 (G-30),2020-056C,2026-06-11T16:04:20.942112,1.00270074,.0002095,0.0016,14.0582,71.7827,290.2690,0,U,46114,999,2123,0,.54E-6,0
GAOFEN-13 01,2020-071A,2026-06-11T20:39:12.703680,1.00273509,.0041326,0.5068,84.9016,123.5141,119.7930,0,U,46610,999,2086,0,-.347E-5,0
